[{"col1":"1 13601U 23001EAE 25071.72713501  .00030938  00000+0  12818-2 0  9996"},{"col1":"2 13601 045.0000 000.0000 0000001 044.0741 139.9155 02.19630527019129"},{"col1":"500"},{"col1":"3095.935739"},{"col1":"5854.064261"}]
